[{"OBJECT_NAME":"STARLINK-2314","OBJECT_ID":"2021-018B","EPOCH":"2026-03-09T16:15:38.439072","MEAN_MOTION":15.30196735,"ECCENTRICITY":0.00012943,"INCLINATION":53.1611,"RA_OF_ASC_NODE":219.7915,"ARG_OF_PERICENTER":78.4558,"MEAN_ANOMALY":281.6588,"EPHEMERIS_TYPE":0,"CLASSIFICATION_TYPE":"U","NORAD_CAT_ID":47788,"ELEMENT_SET_NO":999,"REV_AT_EPOCH":27706,"BSTAR":8.6929658e-5,"MEAN_MOTION_DOT":2.216e-5,"MEAN_MOTION_DDOT":0},{"OBJECT_NAME":"TIANMU-1 09","OBJECT_ID":"2023-101C","EPOCH":"2026-03-09T22:17:34.703232","MEAN_MOTION":15.29080822,"ECCENTRICITY":0.00049013,"INCLINATION":97.267,"RA_OF_ASC_NODE":121.1263,"ARG_OF_PERICENTER":139.4293,"MEAN_ANOMALY":220.7314,"EPHEMERIS_TYPE":0,"CLASSIFICATION_TYPE":"U","NORAD_CAT_ID":57401,"ELEMENT_SET_NO":999,"REV_AT_EPOCH":14647,"BSTAR":0.00030540035,"MEAN_MOTION_DOT":8.553e-5,"MEAN_MOTION_DDOT":0}]
